ONEWEB-0623             
1 55164U 23004AA  25276.65763771  .00000010  00000+0 -78569-5 0  9995
2 55164  87.9073  56.9049 0002176  78.3163 281.8213 13.17650987133801
ONEWEB-0624             
1 55165U 23004AB  25276.36954335 -.00000146  00000+0 -43825-3 0  9998
2 55165  87.8927  41.6571 0001798  90.6429 269.4906 13.12914975134370
ONEWEB-0625             
1 55166U 23004AC  25276.41971555  .00000105  00000+0  23669-3 0  9995
2 55166  87.9072  56.9488 0001582  97.5497 262.5815 13.17650028133767
ONEWEB-0626             
1 55167U 23004AD  25276.63740879  .00000120  00000+0  27591-3 0  9998
2 55167  87.9074  56.9042 0002011 109.7886 250.3463 13.17650199133798
ONEWEB-0627             
1 55168U 23004AE  25277.46089498 -.00000131  00000+0 -37177-3 0  9999
2 55168  87.9075  56.7413 0002102  83.7796 276.3575 13.17649783133904
ONEWEB-0628             
1 55169U 23004AF  25276.63727434  .00000356  00000+0  95294-3 0  9998
2 55169  87.8939  41.6122 0002080  79.6612 280.4751 13.12442805134385
ONEWEB-0629             
1 55170U 23004AG  25277.43642326  .00000042  00000+0  73741-4 0  9991
2 55170  87.9079  56.7417 0001514  86.1840 273.9464 13.17649555133905
ONEWEB-0631             
1 55171U 23004AH  25276.56269580  .00000143  00000+0  33085-3 0  9990
2 55171  87.9221  26.3902 0002361 104.6734 255.4660 13.18686763135858
ONEWEB-0709             
1 55172U 23004AJ  25277.45756231 -.00000516  00000+0 -14927-2 0  9993
2 55172  87.8794  72.0252 0002211 116.5707 243.5648 13.11415625132351
ONEWEB-0710             
1 55173U 23004AK  25277.45077184  .00000252  00000+0  61516-3 0  9999
2 55173  87.9076  56.7337 0001839  91.6546 268.4796 13.17649182133903
ONEWEB-0711             
1 55174U 23004AL  25276.43688916  .00000362  00000+0  98566-3 0  9995
2 55174  87.8802  72.1974 0002275  77.5122 282.6260 13.11414344132184
ONEWEB-0713             
1 55175U 23004AM  25277.44738536 -.00000262  00000+0 -77553-3 0  9996
2 55175  87.8793  72.0011 0001893  85.5324 274.6020 13.11413931132303
ONEWEB-0715             
1 55176U 23004AN  25277.44230584  .00000018  00000+0  14732-4 0  9995
2 55176  87.8793  72.0026 0002340 104.5847 255.5540 13.11414176132341
ONEWEB-0716             
1 55177U 23004AP  25277.44401451  .00000082  00000+0  17710-3 0  9998
2 55177  87.9076  56.7349 0001475  99.4561 260.6737 13.17650118133909
ONEWEB-0717             
1 55178U 23004AQ  25276.36401929  .00000058  00000+0  11681-3 0  9993
2 55178  87.9091  56.9149 0002339  84.9563 275.1836 13.17649966133818
ONEWEB-0719             
1 55179U 23004AR  25277.43726911  .00000072  00000+0  15115-3 0  9996
2 55179  87.9085  56.6836 0001498  92.9813 267.1490 13.17648383133903
ONEWEB-0530             
1 55796U 23029A   25276.57795422 -.00000021  00000+0 -82550-4 0  9999
2 55796  87.9242 325.6565 0002119  83.5642 276.5733 13.20772833127277
