[{"OBJECT_NAME":"ONEWEB-0623","OBJECT_ID":"2023-004AA","EPOCH":"2025-10-03T15:46:59.898144","MEAN_MOTION":13.17650987,"ECCENTRICITY":0.00021763,"INCLINATION":87.9073,"RA_OF_ASC_NODE":56.9049,"ARG_OF_PERICENTER":78.3163,"MEAN_ANOMALY":281.8213,"EPHEMERIS_TYPE":0,"CLASSIFICATION_TYPE":"U","NORAD_CAT_ID":55164,"ELEMENT_SET_NO":999,"REV_AT_EPOCH":13380,"BSTAR":-7.85689e-6,"MEAN_MOTION_DOT":1.0e-7,"MEAN_MOTION_DDOT":0},{"OBJECT_NAME":"ONEWEB-0624","OBJECT_ID":"2023-004AB","EPOCH":"2025-10-03T08:52:08.545440","MEAN_MOTION":13.12914975,"ECCENTRICITY":0.00017985,"INCLINATION":87.8927,"RA_OF_ASC_NODE":41.6571,"ARG_OF_PERICENTER":90.6429,"MEAN_ANOMALY":269.4906,"EPHEMERIS_TYPE":0,"CLASSIFICATION_TYPE":"U","NORAD_CAT_ID":55165,"ELEMENT_SET_NO":999,"REV_AT_EPOCH":13437,"BSTAR":-0.00043824785,"MEAN_MOTION_DOT":-1.46e-6,"MEAN_MOTION_DDOT":0},{"OBJECT_NAME":"ONEWEB-0625","OBJECT_ID":"2023-004AC","EPOCH":"2025-10-03T10:04:23.423520","MEAN_MOTION":13.17650028,"ECCENTRICITY":0.00015828,"INCLINATION":87.9072,"RA_OF_ASC_NODE":56.9488,"ARG_OF_PERICENTER":97.5497,"MEAN_ANOMALY":262.5815,"EPHEMERIS_TYPE":0,"CLASSIFICATION_TYPE":"U","NORAD_CAT_ID":55166,"ELEMENT_SET_NO":999,"REV_AT_EPOCH":13376,"BSTAR":0.00023669446,"MEAN_MOTION_DOT":1.05e-6,"MEAN_MOTION_DDOT":0},{"OBJECT_NAME":"ONEWEB-0626","OBJECT_ID":"2023-004AD","EPOCH":"2025-10-03T15:17:52.119456","MEAN_MOTION":13.17650199,"ECCENTRICITY":0.00020112,"INCLINATION":87.9074,"RA_OF_ASC_NODE":56.9042,"ARG_OF_PERICENTER":109.7886,"MEAN_ANOMALY":250.3463,"EPHEMERIS_TYPE":0,"CLASSIFICATION_TYPE":"U","NORAD_CAT_ID":55167,"ELEMENT_SET_NO":999,"REV_AT_EPOCH":13379,"BSTAR":0.00027590851,"MEAN_MOTION_DOT":1.2e-6,"MEAN_MOTION_DDOT":0},{"OBJECT_NAME":"ONEWEB-0627","OBJECT_ID":"2023-004AE","EPOCH":"2025-10-04T11:03:41.326272","MEAN_MOTION":13.17649783,"ECCENTRICITY":0.0002102,"INCLINATION":87.9075,"RA_OF_ASC_NODE":56.7413,"ARG_OF_PERICENTER":83.7796,"MEAN_ANOMALY":276.3575,"EPHEMERIS_TYPE":0,"CLASSIFICATION_TYPE":"U","NORAD_CAT_ID":55168,"ELEMENT_SET_NO":999,"REV_AT_EPOCH":13390,"BSTAR":-0.00037177,"MEAN_MOTION_DOT":-1.31e-6,"MEAN_MOTION_DDOT":0},{"OBJECT_NAME":"ONEWEB-0628","OBJECT_ID":"2023-004AF","EPOCH":"2025-10-03T15:17:40.502976","MEAN_MOTION":13.12442805,"ECCENTRICITY":0.00020801,"INCLINATION":87.8939,"RA_OF_ASC_NODE":41.6122,"ARG_OF_PERICENTER":79.6612,"MEAN_ANOMALY":280.4751,"EPHEMERIS_TYPE":0,"CLASSIFICATION_TYPE":"U","NORAD_CAT_ID":55169,"ELEMENT_SET_NO":999,"REV_AT_EPOCH":13438,"BSTAR":0.00095294416,"MEAN_MOTION_DOT":3.56e-6,"MEAN_MOTION_DDOT":0},{"OBJECT_NAME":"ONEWEB-0629","OBJECT_ID":"2023-004AG","EPOCH":"2025-10-04T10:28:26.969664","MEAN_MOTION":13.17649555,"ECCENTRICITY":0.0001514,"INCLINATION":87.9079,"RA_OF_ASC_NODE":56.7417,"ARG_OF_PERICENTER":86.184,"MEAN_ANOMALY":273.9464,"EPHEMERIS_TYPE":0,"CLASSIFICATION_TYPE":"U","NORAD_CAT_ID":55170,"ELEMENT_SET_NO":999,"REV_AT_EPOCH":13390,"BSTAR":7.3741e-5,"MEAN_MOTION_DOT":4.2e-7,"MEAN_MOTION_DDOT":0},{"OBJECT_NAME":"ONEWEB-0631","OBJECT_ID":"2023-004AH","EPOCH":"2025-10-03T13:30:16.917120","MEAN_MOTION":13.18686763,"ECCENTRICITY":0.00023618,"INCLINATION":87.9221,"RA_OF_ASC_NODE":26.3902,"ARG_OF_PERICENTER":104.6734,"MEAN_ANOMALY":255.466,"EPHEMERIS_TYPE":0,"CLASSIFICATION_TYPE":"U","NORAD_CAT_ID":55171,"ELEMENT_SET_NO":999,"REV_AT_EPOCH":13585,"BSTAR":0.00033084735,"MEAN_MOTION_DOT":1.43e-6,"MEAN_MOTION_DDOT":0},{"OBJECT_NAME":"ONEWEB-0709","OBJECT_ID":"2023-004AJ","EPOCH":"2025-10-04T10:58:53.383584","MEAN_MOTION":13.11415625,"ECCENTRICITY":0.0002211,"INCLINATION":87.8794,"RA_OF_ASC_NODE":72.0252,"ARG_OF_PERICENTER":116.5707,"MEAN_ANOMALY":243.5648,"EPHEMERIS_TYPE":0,"CLASSIFICATION_TYPE":"U","NORAD_CAT_ID":55172,"ELEMENT_SET_NO":999,"REV_AT_EPOCH":13235,"BSTAR":-0.0014927,"MEAN_MOTION_DOT":-5.16e-6,"MEAN_MOTION_DDOT":0},{"OBJECT_NAME":"ONEWEB-0710","OBJECT_ID":"2023-004AK","EPOCH":"2025-10-04T10:49:06.686976","MEAN_MOTION":13.17649182,"ECCENTRICITY":0.0001839,"INCLINATION":87.9076,"RA_OF_ASC_NODE":56.7337,"ARG_OF_PERICENTER":91.6546,"MEAN_ANOMALY":268.4796,"EPHEMERIS_TYPE":0,"CLASSIFICATION_TYPE":"U","NORAD_CAT_ID":55173,"ELEMENT_SET_NO":999,"REV_AT_EPOCH":13390,"BSTAR":0.00061516,"MEAN_MOTION_DOT":2.52e-6,"MEAN_MOTION_DDOT":0},{"OBJECT_NAME":"ONEWEB-0711","OBJECT_ID":"2023-004AL","EPOCH":"2025-10-03T10:29:07.223424","MEAN_MOTION":13.11414344,"ECCENTRICITY":0.0002275,"INCLINATION":87.8802,"RA_OF_ASC_NODE":72.1974,"ARG_OF_PERICENTER":77.5122,"MEAN_ANOMALY":282.626,"EPHEMERIS_TYPE":0,"CLASSIFICATION_TYPE":"U","NORAD_CAT_ID":55174,"ELEMENT_SET_NO":999,"REV_AT_EPOCH":13218,"BSTAR":0.00098565911,"MEAN_MOTION_DOT":3.62e-6,"MEAN_MOTION_DDOT":0},{"OBJECT_NAME":"ONEWEB-0713","OBJECT_ID":"2023-004AM","EPOCH":"2025-10-04T10:44:14.095104","MEAN_MOTION":13.11413931,"ECCENTRICITY":0.0001893,"INCLINATION":87.8793,"RA_OF_ASC_NODE":72.0011,"ARG_OF_PERICENTER":85.5324,"MEAN_ANOMALY":274.602,"EPHEMERIS_TYPE":0,"CLASSIFICATION_TYPE":"U","NORAD_CAT_ID":55175,"ELEMENT_SET_NO":999,"REV_AT_EPOCH":13230,"BSTAR":-0.00077553,"MEAN_MOTION_DOT":-2.62e-6,"MEAN_MOTION_DDOT":0},{"OBJECT_NAME":"ONEWEB-0715","OBJECT_ID":"2023-004AN","EPOCH":"2025-10-04T10:36:55.224576","MEAN_MOTION":13.11414176,"ECCENTRICITY":0.000234,"INCLINATION":87.8793,"RA_OF_ASC_NODE":72.0026,"ARG_OF_PERICENTER":104.5847,"MEAN_ANOMALY":255.554,"EPHEMERIS_TYPE":0,"CLASSIFICATION_TYPE":"U","NORAD_CAT_ID":55176,"ELEMENT_SET_NO":999,"REV_AT_EPOCH":13234,"BSTAR":1.4732e-5,"MEAN_MOTION_DOT":1.8e-7,"MEAN_MOTION_DDOT":0},{"OBJECT_NAME":"ONEWEB-0716","OBJECT_ID":"2023-004AP","EPOCH":"2025-10-04T10:39:22.853664","MEAN_MOTION":13.17650118,"ECCENTRICITY":0.0001475,"INCLINATION":87.9076,"RA_OF_ASC_NODE":56.7349,"ARG_OF_PERICENTER":99.4561,"MEAN_ANOMALY":260.6737,"EPHEMERIS_TYPE":0,"CLASSIFICATION_TYPE":"U","NORAD_CAT_ID":55177,"ELEMENT_SET_NO":999,"REV_AT_EPOCH":13390,"BSTAR":0.0001771,"MEAN_MOTION_DOT":8.2e-7,"MEAN_MOTION_DDOT":0},{"OBJECT_NAME":"ONEWEB-0717","OBJECT_ID":"2023-004AQ","EPOCH":"2025-10-03T08:44:11.266656","MEAN_MOTION":13.17649966,"ECCENTRICITY":0.00023395,"INCLINATION":87.9091,"RA_OF_ASC_NODE":56.9149,"ARG_OF_PERICENTER":84.9563,"MEAN_ANOMALY":275.1836,"EPHEMERIS_TYPE":0,"CLASSIFICATION_TYPE":"U","NORAD_CAT_ID":55178,"ELEMENT_SET_NO":999,"REV_AT_EPOCH":13381,"BSTAR":0.00011681462,"MEAN_MOTION_DOT":5.8e-7,"MEAN_MOTION_DDOT":0},{"OBJECT_NAME":"ONEWEB-0719","OBJECT_ID":"2023-004AR","EPOCH":"2025-10-04T10:29:40.051104","MEAN_MOTION":13.17648383,"ECCENTRICITY":0.0001498,"INCLINATION":87.9085,"RA_OF_ASC_NODE":56.6836,"ARG_OF_PERICENTER":92.9813,"MEAN_ANOMALY":267.149,"EPHEMERIS_TYPE":0,"CLASSIFICATION_TYPE":"U","NORAD_CAT_ID":55179,"ELEMENT_SET_NO":999,"REV_AT_EPOCH":13390,"BSTAR":0.00015115,"MEAN_MOTION_DOT":7.2e-7,"MEAN_MOTION_DDOT":0},{"OBJECT_NAME":"ONEWEB-0530","OBJECT_ID":"2023-029A","EPOCH":"2025-10-03T13:52:15.244608","MEAN_MOTION":13.20772833,"ECCENTRICITY":0.0002119,"INCLINATION":87.9242,"RA_OF_ASC_NODE":325.6565,"ARG_OF_PERICENTER":83.5642,"MEAN_ANOMALY":276.5733,"EPHEMERIS_TYPE":0,"CLASSIFICATION_TYPE":"U","NORAD_CAT_ID":55796,"ELEMENT_SET_NO":999,"REV_AT_EPOCH":12727,"BSTAR":-8.2550372e-5,"MEAN_MOTION_DOT":-2.1e-7,"MEAN_MOTION_DDOT":0}]
